ONEWEB-0349             
1 49281U 21090C   26010.80515379  .00000000  00000+0 -33002-4 0  9995
2 49281  87.9228 305.8350 0001658  76.4978 283.6340 13.20771088209056
ONEWEB-0353             
1 49282U 21090D   26010.87524971 -.00000101  00000+0 -30784-3 0  9997
2 49282  87.9023 321.0501 0001790  69.5588 290.5734 13.14502947206910
ONEWEB-0356             
1 49283U 21090E   26010.80357524 -.00000020  00000+0 -81426-4 0  9999
2 49283  87.9230 305.8289 0002640  75.5713 284.5713 13.20771017209057
ONEWEB-0358             
1 49284U 21090F   26010.75781011  .00000031  00000+0  45517-4 0  9997
2 49284  87.9232 305.8396 0001843  79.9564 280.1777 13.20772153209778
ONEWEB-0359             
1 49285U 21090G   26010.75465154  .00000065  00000+0  12909-3 0  9990
2 49285  87.9227 305.8382 0001810  90.5280 269.6061 13.20771704209753
ONEWEB-0360             
1 49286U 21090H   26010.74518520  .00000069  00000+0  13738-3 0  9991
2 49286  87.9225 305.8473 0001700  80.8834 279.2492 13.20772484209063
ONEWEB-0361             
1 49287U 21090J   26010.80200704 -.00000021  00000+0 -83698-4 0  9994
2 49287  87.9228 305.8332 0001905  76.9946 283.1400 13.20772559209525
ONEWEB-0362             
1 49288U 21090K   26010.93320913 -.00000026  00000+0 -97577-4 0  9990
2 49288  87.9219 336.2738 0001524  82.5701 277.5605 13.19724972206179
